[{"OBJECT_NAME":"ONEWEB-0336","OBJECT_ID":"2021-083S","EPOCH":"2026-03-09T18:29:50.106912","MEAN_MOTION":13.13469903,"ECCENTRICITY":0.00017571,"INCLINATION":87.9033,"RA_OF_ASC_NODE":340.0084,"ARG_OF_PERICENTER":64.3133,"MEAN_ANOMALY":295.8177,"EPHEMERIS_TYPE":0,"CLASSIFICATION_TYPE":"U","NORAD_CAT_ID":49202,"ELEMENT_SET_NO":999,"REV_AT_EPOCH":21786,"BSTAR":-0.0004478699,"MEAN_MOTION_DOT":-1.51e-6,"MEAN_MOTION_DDOT":0},{"OBJECT_NAME":"PEGASUS DEB","OBJECT_ID":"1994-029GC","EPOCH":"2026-03-09T23:03:07.542144","MEAN_MOTION":13.89172206,"ECCENTRICITY":0.05394822,"INCLINATION":81.4728,"RA_OF_ASC_NODE":252.4149,"ARG_OF_PERICENTER":331.1346,"MEAN_ANOMALY":142.5233,"EPHEMERIS_TYPE":0,"CLASSIFICATION_TYPE":"U","NORAD_CAT_ID":24129,"ELEMENT_SET_NO":999,"REV_AT_EPOCH":48606,"BSTAR":0.00045620982,"MEAN_MOTION_DOT":1.837e-5,"MEAN_MOTION_DDOT":0}]
